NORAD_CAT_ID,OBJECT_NAME,OBJECT_TYPE,EPOCH,MEAN_MOTION,ECCENTRICITY,INCLINATION,RA_OF_ASC_NODE,ARG_OF_PERICENTER,MEAN_ANOMALY,BSTAR,MEAN_MOTION_DOT,MEAN_MOTION_DDOT,TLE_LINE0,TLE_LINE1,TLE_LINE2,SEMIMAJOR_AXIS,PERIOD,APOGEE,PERIGEE,DECAYED
49146.0,STARLINK-3116,PAYLOAD,2024-05-12 04:58:23,14.98327295,0.0003297,69.9994,154.9025,274.0195,86.0588,-0.00010633,-1.361e-05,0.0,0 STARLINK-3116,1 49146U 21082S   24133.20721778 -.00001361  00000-0 -10633-3 0  9993,2 49146  69.9994 154.9025 0003297 274.0195  86.0588 14.98327295147802,6950.201,96.107,574.358,569.775,0.0
49146.0,STARLINK-3116,PAYLOAD,2024-05-12 11:22:55,14.98329304,0.0003647,69.9991,154.231,269.096,90.9781,-0.0002251,-2.778e-05,0.0,0 STARLINK-3116,1 49146U 21082S   24133.47425335 -.00002778  00000-0 -22510-3 0  9992,2 49146  69.9991 154.2310 0003647 269.0960  90.9781 14.98329304147837,6950.195,96.107,574.595,569.525,0.0
49146.0,STARLINK-3116,PAYLOAD,2024-05-13 05:00:24,14.98318829,0.0003232,70.0003,152.3773,275.4421,84.6369,-0.00019202,-2.383e-05,0.0,0 STARLINK-3116,1 49146U 21082S   24134.20862219 -.00002383  00000-0 -19202-3 0  9996,2 49146  70.0003 152.3773 0003232 275.4421  84.6369 14.98318829147954,6950.227,96.108,574.339,569.846,0.0
49146.0,STARLINK-3116,PAYLOAD,2024-05-13 11:24:57,14.98319523,0.0003282,70.0002,151.704,275.0821,84.9963,-0.00018208,-2.264e-05,0.0,0 STARLINK-3116,1 49146U 21082S   24134.47566438 -.00002264  00000-0 -18208-3 0  9992,2 49146  70.0002 151.7040 0003282 275.0821  84.9963 14.98319523147986,6950.225,96.108,574.371,569.809,0.0
49146.0,STARLINK-3116,PAYLOAD,2024-05-13 17:49:29,14.98318169,0.0003234,70.0004,151.0309,270.7983,89.2805,-6.8242e-05,-9.07e-06,0.0,0 STARLINK-3116,1 49146U 21082S   24134.74270741 -.00000907  00000-0 -68242-4 0  9997,2 49146  70.0004 151.0309 0003234 270.7983  89.2805 14.98318169148021,6950.229,96.108,574.342,569.847,0.0
49146.0,STARLINK-3116,PAYLOAD,2024-05-14 05:02:26,14.9831737,0.0003288,69.9987,149.8524,275.491,84.5874,0.00017559,2.002e-05,0.0,0 STARLINK-3116,1 49146U 21082S   24135.21003210  .00002002  00000-0  17559-3 0  9995,2 49146  69.9987 149.8524 0003288 275.4910  84.5874 14.98317370148109,6950.232,96.108,574.382,569.812,0.0
49146.0,STARLINK-3116,PAYLOAD,2024-05-14 09:50:51,14.98318291,0.0003295,69.9987,149.3473,275.8694,84.209,0.00017763,2.026e-05,0.0,0 STARLINK-3116,1 49146U 21082S   24135.41031337  .00002026  00000-0  17763-3 0  9991,2 49146  69.9987 149.3473 0003295 275.8694  84.2090 14.98318291148120,6950.229,96.108,574.384,569.804,0.0
49146.0,STARLINK-3116,PAYLOAD,2024-05-14 17:51:31,14.9832159,0.0003303,69.9987,148.5056,276.1244,83.9539,0.0002213,2.548e-05,0.0,0 STARLINK-3116,1 49146U 21082S   24135.74411399  .00002548  00000-0  22130-3 0  9990,2 49146  69.9987 148.5056 0003303 276.1244  83.9539 14.98321590148178,6950.219,96.108,574.38,569.788,0.0
49146.0,STARLINK-3116,PAYLOAD,2024-05-15 05:04:28,14.98325426,0.0003365,69.9985,147.3271,276.8073,83.2703,0.0002831,3.286e-05,0.0,0 STARLINK-3116,1 49146U 21082S   24136.21143542  .00003286  00000-0  28310-3 0  9991,2 49146  69.9985 147.3271 0003365 276.8073  83.2703 14.98325426148254,6950.207,96.107,574.411,569.733,0.0
49146.0,STARLINK-3116,PAYLOAD,2024-05-15 11:29:00,14.98331393,0.0003374,69.9999,146.6543,274.8287,85.2486,0.00033238,3.875e-05,0.0,0 STARLINK-3116,1 49146U 21082S   24136.47847390  .00003875  00000-0  33238-3 0  9990,2 49146  69.9999 146.6543 0003374 274.8287  85.2486 14.98331393148281,6950.189,96.107,574.399,569.709,0.0
49146.0,STARLINK-3116,PAYLOAD,2024-05-16 05:06:28,14.98341748,0.000339,69.9998,144.8029,274.4637,85.6135,0.00039755,4.655e-05,0.0,0 STARLINK-3116,1 49146U 21082S   24137.21282852  .00004655  00000-0  39755-3 0  9996,2 49146  69.9998 144.8029 0003390 274.4637  85.6135 14.98341748148406,6950.157,96.106,574.378,569.665,0.0
49146.0,STARLINK-3116,PAYLOAD,2024-05-16 09:54:52,14.98346579,0.0003383,70.0002,144.2979,274.7644,85.3129,0.00049006,5.762e-05,0.0,0 STARLINK-3116,1 49146U 21082S   24137.41310622  .00005762  00000-0  49006-3 0  9995,2 49146  70.0002 144.2979 0003383 274.7644  85.3129 14.98346579148425,6950.142,96.106,574.358,569.655,0.0
49146.0,STARLINK-3116,PAYLOAD,2024-05-16 17:55:32,14.98334504,0.0003838,70.0001,143.4562,271.7172,88.3548,4.6464e-05,4.61e-06,0.0,0 STARLINK-3116,1 49146U 21082S   24137.74690595  .00000461  00000-0  46464-4 0  9998,2 49146  70.0001 143.4562 0003838 271.7172  88.3548 14.98334504148480,6950.179,96.107,574.711,569.376,0.0
49146.0,STARLINK-3116,PAYLOAD,2024-05-17 05:08:28,14.98346854,0.0003357,70.0001,142.2779,273.7293,86.3482,0.00028484,3.309e-05,0.0,0 STARLINK-3116,1 49146U 21082S   24138.21421929  .00003309  00000-0  28484-3 0  9999,2 49146  70.0001 142.2779 0003357 273.7293  86.3482 14.98346854148553,6950.141,96.106,574.339,569.673,0.0
49146.0,STARLINK-3116,PAYLOAD,2024-05-17 09:56:52,14.98348765,0.000335,70.0001,141.7727,273.3196,86.758,0.00028988,3.369e-05,0.0,0 STARLINK-3116,1 49146U 21082S   24138.41449643  .00003369  00000-0  28988-3 0  9999,2 49146  70.0001 141.7727 0003350 273.3196  86.7580 14.98348765148579,6950.135,96.106,574.328,569.672,0.0
49146.0,STARLINK-3116,PAYLOAD,2024-05-17 17:57:32,14.98341126,0.00033,70.0002,140.9313,274.2117,85.8664,4.2399e-05,4.13e-06,0.0,0 STARLINK-3116,1 49146U 21082S   24138.74829672  .00000413  00000-0  42399-4 0  9999,2 49146  70.0002 140.9313 0003300 274.2117  85.8664 14.98341126148634,6950.158,96.106,574.317,569.73,0.0
49146.0,STARLINK-3116,PAYLOAD,2024-05-18 09:58:53,14.98334531,0.0003013,69.9991,139.2472,267.7865,92.2949,2.1049e-05,1.58e-06,0.0,0 STARLINK-3116,1 49146U 21082S   24139.41589957  .00000158  00000-0  21049-4 0  9998,2 49146  69.9991 139.2472 0003013 267.7865  92.2949 14.98334531148734,6950.179,96.107,574.138,569.95,0.0
49146.0,STARLINK-3116,PAYLOAD,2024-05-19 10:00:54,14.98336358,0.0003117,69.9991,136.7227,271.0958,88.9843,-2.3668e-05,-3.75e-06,0.0,0 STARLINK-3116,1 49146U 21082S   24140.41729469 -.00000375  00000-0 -23668-4 0  9996,2 49146  69.9991 136.7227 0003117 271.0958  88.9843 14.98336358148879,6950.173,96.107,574.205,569.872,0.0
49146.0,STARLINK-3116,PAYLOAD,2024-05-20 08:26:47,14.98330146,0.0003129,69.9991,134.3672,268.5173,91.5627,5.9437e-05,6.16e-06,0.0,0 STARLINK-3116,1 49146U 21082S   24141.35193554  .00000616  00000-0  59437-4 0  9999,2 49146  69.9991 134.3672 0003129 268.5173  91.5627 14.98330146149016,6950.192,96.107,574.232,569.883,0.0
49146.0,STARLINK-3116,PAYLOAD,2024-05-21 08:28:48,14.98329169,0.0003093,69.9991,131.842,268.0936,91.9869,1.7999e-05,1.22e-06,0.0,0 STARLINK-3116,1 49146U 21082S   24142.35333703  .00000122  00000-0  17999-4 0  9991,2 49146  69.9991 131.8420 0003093 268.0936  91.9869 14.98329169149173,6950.195,96.107,574.21,569.911,0.0
49146.0,STARLINK-3116,PAYLOAD,2024-05-21 22:54:00,14.98329955,0.0003142,69.999,130.3269,268.2563,91.8236,4.5578e-05,4.51e-06,0.0,0 STARLINK-3116,1 49146U 21082S   24142.95417560  .00000451  00000-0  45578-4 0  9990,2 49146  69.9990 130.3269 0003142 268.2563  91.8236 14.98329955149259,6950.193,96.107,574.242,569.874,0.0
49146.0,STARLINK-3116,PAYLOAD,2024-05-22 08:30:49,14.98331243,0.0003131,69.999,129.3168,266.8168,93.2633,5.3413e-05,5.44e-06,0.0,0 STARLINK-3116,1 49146U 21082S   24143.35473428  .00000544  00000-0  53413-4 0  9990,2 49146  69.9990 129.3168 0003131 266.8168  93.2633 14.98331243149326,6950.189,96.107,574.23,569.878,0.0
49146.0,STARLINK-3116,PAYLOAD,2024-05-23 03:44:28,14.98299364,0.0003387,69.9987,127.2967,269.2403,90.8367,-0.00026957,-3.306e-05,0.0,0 STARLINK-3116,1 49146U 21082S   24144.15588508 -.00003306  00000-0 -26957-3 0  9998,2 49146  69.9987 127.2967 0003387 269.2403  90.8367 14.98299364149445,6950.288,96.109,574.507,569.799,0.0
49146.0,STARLINK-3116,PAYLOAD,2024-05-23 08:32:53,14.98297622,0.0003142,69.9991,126.792,261.996,98.0843,-0.00027588,-3.38e-05,0.0,0 STARLINK-3116,1 49146U 21082S   24144.35616963 -.00003380  00000-0 -27588-3 0  9990,2 49146  69.9991 126.7920 0003142 261.9960  98.0843 14.98297622149465,6950.293,96.109,574.342,569.974,0.0
49146.0,STARLINK-3116,PAYLOAD,2024-05-23 21:21:56,14.98313856,0.0003869,69.9963,125.4396,262.8293,97.2426,-0.00014423,-1.813e-05,0.0,0 STARLINK-3116,1 49146U 21082S   24144.89024168 -.00001813  00000-0 -14423-3 0  9992,2 49146  69.9963 125.4396 0003869 262.8293  97.2426 14.98313856149547,6950.243,96.108,574.797,569.419,0.0
49146.0,STARLINK-3116,PAYLOAD,2024-05-24 03:46:28,14.98323272,0.0002769,70.0,124.7716,268.6885,91.3957,5.3042e-05,5.4e-06,0.0,0 STARLINK-3116,1 49146U 21082S   24145.15727395  .00000540  00000-0  53042-4 0  9999,2 49146  70.0000 124.7716 0002769 268.6885  91.3957 14.98323272149591,6950.214,96.107,574.003,570.154,0.0
49146.0,STARLINK-3116,PAYLOAD,2024-05-24 08:34:52,14.98325457,0.0002511,70.0006,124.2673,259.8425,100.2451,8.3841e-05,9.07e-06,0.0,0 STARLINK-3116,1 49146U 21082S   24145.35755244  .00000907  00000-0  83841-4 0  9992,2 49146  70.0006 124.2673 0002511 259.8425 100.2451 14.98325457149610,6950.207,96.107,573.817,570.327,0.0
49146.0,STARLINK-3116,PAYLOAD,2024-05-24 23:00:04,14.98318855,0.0003676,69.9979,122.7516,268.7228,91.351,0.00041334,4.841e-05,0.0,0 STARLINK-3116,1 49146U 21082S   24145.95838660  .00004841  00000-0  41334-3 0  9993,2 49146  69.9979 122.7516 0003676 268.7228  91.3510 14.98318855149708,6950.227,96.108,574.647,569.537,0.0
49146.0,STARLINK-3116,PAYLOAD,2024-05-25 03:48:28,14.9832329,0.0003624,69.9981,122.2465,268.504,91.5704,0.00047568,5.586e-05,0.0,0 STARLINK-3116,1 49146U 21082S   24146.15866696  .00005586  00000-0  47568-3 0  9998,2 49146  69.9981 122.2465 0003624 268.5040  91.5704 14.98323290149742,6950.214,96.107,574.597,569.56,0.0
49146.0,STARLINK-3116,PAYLOAD,2024-05-25 08:36:53,14.98337451,0.0003261,70.0001,121.7423,260.0579,100.0212,0.00064501,7.613e-05,0.0,0 STARLINK-3116,1 49146U 21082S   24146.35894905  .00007613  00000-0  64501-3 0  9993,2 49146  70.0001 121.7423 0003261 260.0579 100.0212 14.98337451149763,6950.17,96.107,574.301,569.768,0.0
